OPTICUBE 04             
1 41851U 16067D   19235.26020452 -.00000402  00000-0 -29748-4 0  9992
2 41851  97.9180 333.6712 0009214 159.6308 200.5282 14.96820098151720
AEROCUBE 8D             
1 41852U 16067E   19235.26676307 -.00000071  00000-0 -91372-6 0  9995
2 41852  97.9188 333.5032 0010116 160.6084 199.5524 14.96737150151709
AEROCUBE 8C             
1 41853U 16067F   19235.22440791  .00000704  00000-0  66931-4 0  9990
2 41853  97.9192 333.3909 0010685 159.8681 200.2964 14.96704579151695
PROMETHEUS 2-1          
1 41854U 16067G   19235.24885581 -.00000291  00000-0 -20015-4 0  9999
2 41854  97.9203 333.5801 0010662 159.9621 200.2021 14.96936405151703
PROMETHEUS 2-3          
1 41855U 16067H   19235.25096699 -.00000335  00000-0 -23806-4 0  9995
2 41855  97.9205 333.6008 0010808 160.7785 199.3846 14.96941174151701
INS-1B                  
1 41954U 17008G   19235.22042097  .00000650  00000-0  29723-4 0  9993
2 41954  97.3950 299.3900 0007466 276.0915  83.9472 15.24049860139783
BGUSAT                  
1 41999U 17008BD  19235.37253148  .00001100  00000-0  45218-4 0  9997
2 41999  97.4027 302.1902 0006445 291.5049  68.5502 15.26281593139314
DIDO-2                  
1 42000U 17008BE  19235.73754257  .00000455  00000-0  21724-4 0  9996
2 42000  97.3963 300.4509 0006943 297.3345  62.7185 15.23971591139264
PEASSS                  
1 42015U 17008BV  19235.19991421  .00000604  00000-0  27084-4 0  9999
2 42015  97.3972 300.9798 0004922 308.6954  51.3843 15.24952689139737
AL-FARABI 1             
1 42016U 17008BW  19235.43345072  .00000768  00000-0  33055-4 0  9998
2 42016  97.3989 301.8279 0004696 306.4838  53.5967 15.25611871139923
NAYIF-1 (EO-88)         
1 42017U 17008BX  19235.22274993  .00000771  00000-0  33149-4 0  9997
2 42017  97.3986 301.6302 0004722 308.0810  52.0002 15.25646060139915
ALTAIR PATHFINDER       
1 42711U 98067LS  19235.57239649  .00036664  00000-0  15378-3 0  9992
2 42711  51.6329 307.0076 0004091  19.3738 340.7421 15.85174673129528
NSIGHT                  
1 42726U 98067MF  19235.80788899  .00015786  00000-0  11503-3 0  9998
2 42726  51.6357 329.9967 0004651  57.5031 302.6416 15.73493827128228
UCLSAT                  
1 42765U 17036A   19235.11702698  .00000607  00000-0  28860-4 0  9996
2 42765  97.3458 291.7129 0011548   8.8994 351.2446 15.22834468120427
LITUANICASAT-2          
1 42768U 17036D   19235.35521955  .00001033  00000-0  46846-4 0  9998
2 42768  97.3495 291.5862 0014702 356.2725   3.8400 15.22952124120307
AALTO-1                 
1 42775U 17036L   19235.69812386  .00000366  00000-0  19326-4 0  9995
2 42775  97.3441 290.8761 0013719 356.0994   4.0132 15.21400839120247
URSA MAIOR              
1 42776U 17036M   19235.38998483  .00000426  00000-0  21940-4 0  9997
2 42776  97.3450 290.7445 0013564 357.2721   2.8438 15.21538801120207
COMPASS 2               
1 42777U 17036N   19235.10711920  .00000824  00000-0  37912-4 0  9995
2 42777  97.3492 291.8090 0012283 359.6874   0.4353 15.23017224120229
DIAMOND RED             
1 42783U 17036U   19235.12014440  .00000485  00000-0  24017-4 0  9992
2 42783  97.3457 291.2641 0012251   9.5661 350.5806 15.22277692120209
PEGASUS                 
1 42784U 17036V   19235.67799203  .00000562  00000-0  27138-4 0  9993
2 42784  97.3461 292.0610 0012068   7.0585 353.0819 15.22580978120301
DIAMOND GREEN           
1 42785U 17036W   19234.85600980  .00000491  00000-0  24310-4 0  9996
2 42785  97.3460 291.0321 0012213  11.1341 349.0163 15.22276797120158
DIAMOND BLUE            
1 42786U 17036X   19235.11812468  .00000485  00000-0  24014-4 0  9997
2 42786  97.3459 291.2859 0012040  10.5432 349.6055 15.22276308120195
NUDTSAT                 
1 42787U 17036Y   19235.43642644  .00001128  00000-0  49979-4 0  9992
2 42787  97.3502 292.6140 0012782   3.0970 357.0343 15.23588869120158
SUCHAI                  
1 42788U 17036Z   19234.94412786  .00000656  00000-0  30804-4 0  9992
2 42788  97.3466 291.6870 0011686   9.0478 351.0967 15.23010734120289
SKCUBE                  
1 42789U 17036AA  19234.11011083  .00000643  00000-0  30360-4 0  9990
2 42789  97.3464 290.8010 0011638  12.0939 348.0575 15.22903066120074
VZLUSAT-1               
1 42790U 17036AB  19234.63527478  .00000881  00000-0  39726-4 0  9998
2 42790  97.3479 291.8297 0011083   9.7044 350.4406 15.23578608120187
ROBUSTA-1B              
1 42792U 17036AD  19235.15075732  .00000669  00000-0  31312-4 0  9996
2 42792  97.3463 291.9833 0011139   9.5653 350.5794 15.23076023120258
CICERO 6                
1 42793U 17036AE  19235.81972708  .00000435  00000-0  21659-4 0  9993
2 42793  97.3445 292.3693 0010408   9.6602 350.4833 15.22645582120413
D-SAT                   
1 42794U 17036AF  19235.10140568 -.00000041  00000-0  21220-5 0  9996
2 42794  97.5344 276.9080 0124952 283.8053  74.9287 14.91121251118086
CORVUS BC2              
1 42846U 17042X   19235.27024050 -.00000016  00000-0  37208-5 0  9991
2 42846  97.5573 126.6316 0009207 187.2824 172.8263 14.91990913114794
CORVUS BC1              
1 42847U 17042Y   19235.21907539 -.00000122  00000-0 -67603-5 0  9999
2 42847  97.5575 126.6996 0008863 186.2872 173.8238 14.92091026114780
MIRATA                  
1 43015U 17073C   19235.37591881  .00000521  00000-0  46669-4 0  9996
2 43015  97.7171 154.0303 0253978 303.9911  53.7402 14.79076687 95003
MAKERSAT 0              
1 43016U 17073D   19235.26604254  .00000370  00000-0  34904-4 0  9995
2 43016  97.7204 154.1267 0256154 304.7844  52.9499 14.78804870 94978
ASTERIA                 
1 43020U 98067NH  19235.48142984  .00019423  00000-0  14488-3 0  9996
2 43020  51.6438 343.0774 0002595  20.4107 339.6995 15.72767565100209
DELLINGR (RBLE)         
1 43021U 98067NJ  19235.73662262  .00005702  00000-0  65062-4 0  9991
2 43021  51.6393 358.1725 0002238   4.7318 355.3697 15.63910804100026
AEROCUBE 7B (OCSD B)    
1 43042U 17071F   19235.83230526  .00001503  00000-0  44954-4 0  9997
2 43042  51.6382  89.4926 0004973  41.7814 318.3550 15.41469090 96285
AEROCUBE 7C (OCSD C)    
1 43043U 17071G   19235.05434498  .00001576  00000-0  46674-4 0  9997
2 43043  51.6395  93.3122 0005246  42.7267 317.4126 15.41466611 96138
CHEFSAT                 
1 43044U 17071H   19235.12373284  .00002470  00000-0  61868-4 0  9997
2 43044  51.6388  86.4132 0005065  42.5900 317.5479 15.44270459 96235
ASGARDIA 1              
1 43049U 17071N   19235.19561353  .00001604  00000-0  47136-4 0  9995
2 43049  51.6404  92.0412 0002947  62.3546 297.7738 15.41585218 96152
ISARA                   
1 43050U 17071P   19235.22510695  .00002843  00000-0  70932-4 0  9990
2 43050  51.6381  87.0401 0002738  60.8709 299.2551 15.43780977 96221
PROPCUBE 2 (FAUNA)      
1 43052U 17071R   19234.99472127  .00001683  00000-0  48533-4 0  9995
2 43052  51.6386  92.2184 0002822  59.6114 300.5150 15.41879430 96136
CORVUS BC3              
1 43118U 18004H   19235.77306719  .00000374  00000-0  18967-4 0  9999
2 43118  97.4819 302.8982 0011120  28.9385 331.2466 15.22908726 89531
MICROMAS-2A             
1 43131U 18004W   19235.19742646  .00000942  00000-0  41516-4 0  9990
2 43131  97.4848 303.1653 0010144  32.9221 327.2646 15.24259301 89496
SPACEBEE-4              
1 43139U 18004AE  19235.18155989  .00001363  00000-0  57279-4 0  9996
2 43139  97.4867 303.7299 0009609  36.3320 323.8569 15.25143959 89510
SPACEBEE-3              
1 43140U 18004AF  19235.13691034  .00001638  00000-0  67123-4 0  9993
2 43140  97.4879 303.9894 0009394  36.2590 323.9283 15.25707353 89537
SPACEBEE-2              
1 43141U 18004AG  19235.42733107  .00001810  00000-0  73448-4 0  9993
2 43141  97.4884 304.3825 0009255  35.4769 324.7083 15.25900205 89581
SPACEBEE-1              
1 43142U 18004AH  19235.25380192  .00001918  00000-0  77163-4 0  9994
2 43142  97.4888 304.3291 0009226  35.7248 324.4605 15.26114583 89557
CICERO 7                
1 43143U 18004AJ  19235.41231700  .00000835  00000-0  37015-4 0  9992
2 43143  97.4833 303.5946 0008544  42.6164 317.5735 15.24378425 89543
GOMX-4B                 
1 43196U 18015E   19235.49588302  .00000202  00000-0  11269-4 0  9994
2 43196  97.3997   2.1417 0020564  76.8691 283.4845 15.23986921 86361
GOMX-4A                 
1 43197U 18015F   19235.76094913  .00000170  00000-0  99267-5 0  9994
2 43197  97.4010   2.4332 0021058  77.8834  58.5424 15.24082241 86410
1KUNS-PF                
1 43466U 98067NP  19235.72380209  .00014795  00000-0  13509-3 0  9991
2 43466  51.6374 358.7931 0001145   9.4755 350.6263 15.68108382 73274
UBAKUSAT                
1 43467U 98067NQ  19235.76400886  .00008424  00000-0  93310-4 0  9991
2 43467  51.6379   4.3216 0002141 331.7938  28.2940 15.63927422 73214
BATSU-CS1 (IRAZU)       
1 43468U 98067NR  19235.38644744  .00023508  00000-0  18157-3 0  9998
2 43468  51.6364 355.7469 0001327   3.1739 356.9267 15.71800415173277
CUBERRT                 
1 43546U 98067NU  19235.38843416  .00005055  00000-0  53670-4 0  9999
2 43546  51.6388   6.3124 0004272  30.3007 329.8235 15.66075806 63284
TEMPEST-D               
1 43547U 98067NV  19235.78482124  .00002657  00000-0  40629-4 0  9994
2 43547  51.6399  14.9692 0005623  18.1760 341.9432 15.58508856 62889
RAINCUBE                
1 43548U 98067NW  19235.36911693  .00008761  00000-0  10202-3 0  9992
2 43548  51.6374  11.4176 0005362  25.1696 334.9558 15.62563538 63344
HALOSAT                 
1 43549U 98067NX  19235.75970924  .00008655  00000-0  10117-3 0  9995
2 43549  51.6382   9.5433 0005363  30.2818 329.8485 15.62481902 62965
ENDUROSAT ONE           
1 43551U 98067NZ  19235.39144612  .00011127  00000-0  11964-3 0  9994
2 43551  51.6381   8.5841 0005652  34.9351 325.2014 15.64294523 63358
EQUISAT                 
1 43552U 98067PA  19235.42820717  .00008525  00000-0  98496-4 0  9990
2 43552  51.6393  10.3594 0006055  33.6845 326.4533 15.62806791 63296
